NORAD_CAT_ID,OBJECT_NAME,OBJECT_TYPE,EPOCH,MEAN_MOTION,ECCENTRICITY,INCLINATION,RA_OF_ASC_NODE,ARG_OF_PERICENTER,MEAN_ANOMALY,BSTAR,MEAN_MOTION_DOT,MEAN_MOTION_DDOT,TLE_LINE0,TLE_LINE1,TLE_LINE2,SEMIMAJOR_AXIS,PERIOD,APOGEE,PERIGEE,DECAYED
49179.0,STARLINK-3043,PAYLOAD,2021-09-29 14:00:01,15.69867053,0.0003441,70.0034,83.3347,266.7458,25.2675,-0.0013788,-0.00162457,0.0,0 STARLINK-3043,1 49179U 21082BB  21272.58334491 -.00162457  00000-0 -13788-2 0  9990,2 49179  70.0034  83.3347 0003441 266.7458  25.2675 15.69867053  2531,6737.4140000000025,91.728,361.598,356.961,0.0
49179.0,STARLINK-3043,PAYLOAD,2021-09-30 06:00:02,15.69794427,0.0003889,70.001,81.4609,269.9364,188.4358,6.0552e-06,5.12e-06,0.0,0 STARLINK-3043,1 49179U 21082BB  21273.25002315  .00000512  00000-0  60552-5 0  9997,2 49179  70.0010  81.4609 0003889 269.9364 188.4358 15.69794427  2637,6737.621999999999,91.732,362.107,356.867,0.0
49179.0,STARLINK-3043,PAYLOAD,2021-09-30 14:00:01,15.69761971,0.0003978,70.0014,80.5242,269.173,272.254,-0.00014916,-0.00017992,0.0,0 STARLINK-3043,1 49179U 21082BB  21273.58334491 -.00017992  00000-0 -14916-3 0  9999,2 49179  70.0014  80.5242 0003978 269.1730 272.2540 15.69761971  2680,6737.715,91.734,362.26,356.9,0.0
49179.0,STARLINK-3043,PAYLOAD,2021-10-01 14:00:01,15.69640191,0.0003457,70.0009,77.7132,269.7007,161.0694,0.00046775,0.00055747,0.0,0 STARLINK-3043,1 49179U 21082BB  21274.58334491  .00055747  00000-0  46775-3 0  9996,2 49179  70.0009  77.7132 0003457 269.7007 161.0694 15.69640191  2848,6738.064,91.741,362.258,357.599,0.0
49179.0,STARLINK-3043,PAYLOAD,2021-10-01 22:00:00,15.69669095,0.0003514,70.0006,76.7763,275.7012,238.0894,0.0005583,0.00066748,0.0,0 STARLINK-3043,1 49179U 21082BB  21274.91667824  .00066748  00000-0  55830-3 0  9997,2 49179  70.0006  76.7763 0003514 275.7012 238.0894 15.69669095  3146,6737.981,91.739,362.214,357.478,0.0
49179.0,STARLINK-3043,PAYLOAD,2021-10-02 06:00:00,15.6967781,0.0003478,70.0008,75.8383,270.5089,326.3509,0.00064996,0.00077872,0.0,0 STARLINK-3043,1 49179U 21082BB  21275.25001157  .00077872  00000-0  64996-3 0  9999,2 49179  70.0008  75.8383 0003478 270.5089 326.3509 15.69677810  3195,6737.956,91.739,362.164,357.477,0.0
49179.0,STARLINK-3043,PAYLOAD,2021-10-02 14:00:01,15.6978867,0.0003577,70.0009,74.8989,269.4079,50.5159,-0.0010018,-0.00118332,0.0,0 STARLINK-3043,1 49179U 21082BB  21275.58334491 -.00118332  00000-0 -10018-2 0  9999,2 49179  70.0009  74.8989 0003577 269.4079  50.5159 15.69788670  3007,6737.639,91.732,361.914,357.094,0.0
49179.0,STARLINK-3043,PAYLOAD,2021-10-02 22:00:00,15.69700447,0.0003625,69.9999,73.9594,274.8305,128.2191,0.00062682,0.0007513999999999,0.0,0 STARLINK-3043,1 49179U 21082BB  21275.91667824  .00075140  00000-0  62682-3 0  9997,2 49179  69.9999  73.9594 0003625 274.8305 128.2191 15.69700447  3050,6737.891,91.737,362.199,357.314,0.0
49179.0,STARLINK-3043,PAYLOAD,2021-10-03 14:00:01,15.69748383,0.0003675,70.0,72.0843,272.8809,296.3978,-1.8679e-05,-2.442e-05,0.0,0 STARLINK-3043,1 49179U 21082BB  21276.58334491 -.00002442  00000-0 -18679-4 0  9997,2 49179  70.0000  72.0843 0003675 272.8809 296.3978 15.69748383  3168,6737.754,91.734,362.095,357.14300000000014,0.0
49179.0,STARLINK-3043,PAYLOAD,2021-10-03 22:00:01,15.69809097,0.000356,70.0005,71.1544,277.5416,14.9538,-0.00021278,-0.000256,0.0,0 STARLINK-3043,1 49179U 21082BB  21276.91668981 -.00025600  00000-0 -21278-3 0  9997,2 49179  70.0005  71.1544 0003560 277.5416  14.9538 15.69809097  3212,6737.58,91.731,361.844,357.047,0.0
49179.0,STARLINK-3043,PAYLOAD,2021-10-04 14:00:01,15.69796925,0.0003432,70.0014,69.2804,273.3423,185.4144,-0.00015734,-0.0001899,0.0,0 STARLINK-3043,1 49179U 21082BB  21277.58334491 -.00018990  00000-0 -15734-3 0  9991,2 49179  70.0014  69.2804 0003432 273.3423 185.4144 15.69796925  3570,6737.615,91.732,361.792,357.168,0.0
49179.0,STARLINK-3043,PAYLOAD,2021-10-04 22:00:00,15.69812336,0.0003582,70.0009,68.3434,277.5352,264.3942,-0.00057474,-0.00068447,0.0,0 STARLINK-3043,1 49179U 21082BB  21277.91667824 -.00068447  00000-0 -57474-3 0  9996,2 49179  70.0009  68.3434 0003582 277.5352 264.3942 15.69812336  3620,6737.571,91.731,361.849,357.023,0.0
49179.0,STARLINK-3043,PAYLOAD,2021-10-05 06:00:00,15.69702995,0.0003702,70.0011,67.4063,271.7623,353.3465,0.00073245,0.00087983,0.0,0 STARLINK-3043,1 49179U 21082BB  21278.25001157  .00087983  00000-0  73245-3 0  9993,2 49179  70.0011  67.4063 0003702 271.7623 353.3465 15.69702995  3428,6737.884,91.737,362.24300000000005,357.254,0.0
49179.0,STARLINK-3043,PAYLOAD,2021-10-05 14:00:01,15.69781465,0.0003735,70.0013,66.4684,273.4461,74.7689,-0.00024271,-0.00029127,0.0,0 STARLINK-3043,1 49179U 21082BB  21278.58334491 -.00029127  00000-0 -24271-3 0  9992,2 49179  70.0013  66.4684 0003735 273.4461  74.7689 15.69781465  3738,6737.659000000002,91.733,362.041,357.0080000000001,0.0
49179.0,STARLINK-3043,PAYLOAD,2021-10-05 22:00:01,15.69781321,0.0003585,70.0009,65.5323,279.1089,152.3268,-0.00056092,-0.00066735,0.0,0 STARLINK-3043,1 49179U 21082BB  21278.91668981 -.00066735  00000-0 -56092-3 0  9995,2 49179  70.0009  65.5323 0003585 279.1089 152.3268 15.69781321  3529,6737.66,91.733,361.94,357.1090000000001,0.0
49179.0,STARLINK-3043,PAYLOAD,2021-10-06 14:00:01,15.69970369,0.0003583,70.0011,63.6553,269.7604,327.8808,-0.0050671,-0.00570973,0.0,0 STARLINK-3043,1 49179U 21082BB  21279.58335648 -.00570973  00000-0 -50671-2 0  9990,2 49179  70.0011  63.6553 0003583 269.7604 327.8808 15.69970369  3635,6737.119000000002,91.721,361.398,356.57,0.0
49179.0,STARLINK-3043,PAYLOAD,2021-10-06 22:00:00,15.69336399,0.0003586,69.9999,62.716,274.5567,46.2074,0.0051788999999999,0.00657865,0.0,0 STARLINK-3043,1 49179U 21082BB  21279.91667824  .00657865  00000-0  51789-2 0  9996,2 49179  69.9999  62.7160 0003586 274.5567  46.2074 15.69336399  3687,6738.933000000001,91.759,363.215,358.381,0.0
49179.0,STARLINK-3043,PAYLOAD,2021-10-07 14:00:01,15.69767565,0.000336,70.0019,60.848,276.5648,210.4739,-0.00012393,-0.00014991,0.0,0 STARLINK-3043,1 49179U 21082BB  21280.58334491 -.00014991  00000-0 -12393-3 0  9990,2 49179  70.0019  60.8480 0003360 276.5648 210.4739 15.69767565  3731,6737.699000000001,91.733,361.828,357.3,0.0
49179.0,STARLINK-3043,PAYLOAD,2021-10-07 22:00:00,15.69784289,0.000348,70.0016,59.911,280.5445,289.6342,-0.00065259,-0.00077515,0.0,0 STARLINK-3043,1 49179U 21082BB  21280.91667824 -.00077515  00000-0 -65259-3 0  9996,2 49179  70.0016  59.9110 0003480 280.5445 289.6342 15.69784289  3842,6737.651,91.732,361.861,357.171,0.0
49179.0,STARLINK-3043,PAYLOAD,2021-10-08 14:00:01,15.6975927,0.0003782,70.0027,58.0373,276.2544,100.1573,-0.00079806,-0.00094466,0.0,0 STARLINK-3043,1 49179U 21082BB  21281.58334491 -.00094466  00000-0 -79806-3 0  9998,2 49179  70.0027  58.0373 0003782 276.2544 100.1573 15.69759270  3948,6737.723000000001,91.734,362.136,357.04,0.0
49179.0,STARLINK-3043,PAYLOAD,2021-10-08 22:00:00,15.69715992,0.000384,70.0024,57.1004,280.0181,179.4868,-1.3612e-05,-1.835e-05,0.0,0 STARLINK-3043,1 49179U 21082BB  21281.91667824 -.00001835  00000-0 -13612-4 0  9996,2 49179  70.0024  57.1004 0003840 280.0181 179.4868 15.69715992  3995,6737.847,91.736,362.299,357.124,0.0
49179.0,STARLINK-3043,PAYLOAD,2021-10-09 06:00:00,15.69679835,0.0003822,70.0024,56.1638,273.902,268.6971,0.0008283999999999,0.00099582,0.0,0 STARLINK-3043,1 49179U 21082BB  21282.25001157  .00099582  00000-0  82840-3 0  9997,2 49179  70.0024  56.1638 0003822 273.9020 268.6971 15.69679835  3700,6737.95,91.738,362.39,357.24,0.0
49179.0,STARLINK-3043,PAYLOAD,2021-10-09 14:00:01,15.6974804,0.0003856,70.0025,55.2272,277.4769,348.2802,-5.9367e-05,-7.294e-05,0.0,0 STARLINK-3043,1 49179U 21082BB  21282.58335648 -.00007294  00000-0 -59367-4 0  9998,2 49179  70.0025  55.2272 0003856 277.4769 348.2802 15.69748040  4109,6737.755,91.734,362.218,357.022,0.0
49179.0,STARLINK-3043,PAYLOAD,2021-10-09 22:00:00,15.6976533,0.0003916,70.0021,54.2902,280.8772,67.9332,5.5096000000000014e-06,4.46e-06,0.0,0 STARLINK-3043,1 49179U 21082BB  21282.91667824  .00000446  00000-0  55096-5 0  9995,2 49179  70.0021  54.2902 0003916 280.8772  67.9332 15.69765330  3702,6737.705,91.733,362.209,356.932,0.0
49179.0,STARLINK-3043,PAYLOAD,2021-10-10 06:00:00,15.69735266,0.0003815,70.0023,53.3533,274.7709,157.1927,0.00072381,0.00087051,0.0,0 STARLINK-3043,1 49179U 21082BB  21283.25001157  .00087051  00000-0  72381-3 0  9995,2 49179  70.0023  53.3533 0003815 274.7709 157.1927 15.69735266  4207,6737.791,91.735,362.227,357.086,0.0
49179.0,STARLINK-3043,PAYLOAD,2021-10-10 14:00:01,15.69803345,0.0003787,70.0026,52.4164,278.6443,236.4827,-0.00073061,-0.00086737,0.0,0 STARLINK-3043,1 49179U 21082BB  21283.58334491 -.00086737  00000-0 -73061-3 0  9999,2 49179  70.0026  52.4164 0003787 278.6443 236.4827 15.69803345  4255,6737.597,91.731,362.013,356.91,0.0
49179.0,STARLINK-3043,PAYLOAD,2021-10-10 22:00:01,15.69772289,0.0003687,70.0023,51.4793,280.9031,317.4259,-0.00034792,-0.00041583,0.0,0 STARLINK-3043,1 49179U 21082BB  21283.91668981 -.00041583  00000-0 -34792-3 0  9998,2 49179  70.0023  51.4793 0003687 280.9031 317.4259 15.69772289  3707,6737.686,91.733,362.035,357.066,0.0
49179.0,STARLINK-3043,PAYLOAD,2021-10-11 06:00:00,15.69703133,0.0003749,70.0025,50.5428,275.6045,45.8108,0.0003207,0.00038176,0.0,0 STARLINK-3043,1 49179U 21082BB  21284.25001157  .00038176  00000-0  32070-3 0  9991,2 49179  70.0025  50.5428 0003749 275.6045  45.8108 15.69703133  4369,6737.8830000000025,91.737,362.274,357.222,0.0
49179.0,STARLINK-3043,PAYLOAD,2021-10-11 14:00:01,15.6972917,0.0003917,70.0024,49.6061,279.0392,125.4667,-2.7812e-05,-3.529e-05,0.0,0 STARLINK-3043,1 49179U 21082BB  21284.58334491 -.00003529  00000-0 -27812-4 0  9992,2 49179  70.0024  49.6061 0003917 279.0392 125.4667 15.69729170  3688,6737.809,91.736,362.31300000000016,357.035,0.0
